      2.10          N: GNSS NAV DATA                        RINEX VERSION / TYPE
fic2rin                                 07/06/2023 00:17:59 PGM / RUN BY / DATE
                                                            END OF HEADER
1  23  7  5  2  0  0.0  .174546148628D-03 -.204636307899D-11  .000000000000D+00
     .410000000000D+02  .730625000000D+02  .397159400426D-08  .119147037320D+01
     .367872416973D-05  .129440098535D-01  .116601586342D-05  .515364296341D+04
     .266400000000D+06 -.167638063431D-06  .164298264720D+01  .819563865662D-07
     .989826031507D+00  .371937500000D+03  .983419405606D+00 -.831141763248D-08
     .158935191717D-09  .100000000000D+01  .226900000000D+04  .000000000000D+00
     .240000000000D+01  .000000000000D+00  .465661287308D-08  .410000000000D+02
     .259200000000D+06  .400000000000D+01
2  23  7  5  2  0  0.0 -.579357612878D-03  .375166564481D-11  .000000000000D+00
     .870000000000D+02  .993125000000D+02  .425124851014D-08 -.242447894768D+01
     .531412661076D-05  .159231715370D-01  .424683094025D-06  .515356047249D+04
     .266400000000D+06  .156462192535D-06  .154347191365D+01  .158324837685D-06
     .967264668970D+00  .368125000000D+03 -.137430955545D+01 -.806033574534D-08
     .364300888880D-09  .100000000000D+01  .226900000000D+04  .000000000000D+00
     .340000000000D+01  .000000000000D+00 -.176951289177D-07  .870000000000D+02
     .259200000000D+06  .400000000000D+01
9  23  7  5  2  0  0.0 -.119980890304D-03  .909494701773D-11  .000000000000D+00
     .160000000000D+02 -.662812500000D+02  .451697386438D-08 -.242734342467D+01
    -.335834920406D-05  .245216954499D-02  .117179006338D-04  .515359069633D+04
     .266400000000D+06  .167638063431D-07 -.258640446958D+01  .204890966415D-07
     .956557608121D+00  .152156250000D+03  .194325109753D+01 -.777532387345D-08
     .502520932014D-09  .100000000000D+01  .226900000000D+04  .000000000000D+00
     .240000000000D+01  .000000000000D+00  .931322574615D-09  .160000000000D+02
     .259200000000D+06  .400000000000D+01
5  23  7  5  2  0  0.0 -.133660156280D-03 -.147792889038D-11  .000000000000D+00
     .700000000000D+02 -.157718750000D+03  .438268255632D-08 -.250912402997D+01
    -.839866697788D-05  .603915587999D-02  .323168933392D-05  .515370213318D+04
     .266400000000D+06  .819563865662D-07  .262646207780D+01  .335276126862D-07
     .966798852447D+00  .314312500000D+03  .117635784867D+01 -.821069915143D-08
    -.138934358602D-09  .100000000000D+01  .226900000000D+04  .000000000000D+00
     .340000000000D+01  .000000000000D+00 -.111758708954D-07  .700000000000D+02
     .259200000000D+06  .400000000000D+01
3  23  7  5  2  0  0.0 -.245427247137D-03  .150066625793D-10  .000000000000D+00
     .730000000000D+02 -.127218750000D+03  .411445709794D-08  .178564760910D-01
    -.680610537529D-05  .499871175271D-02  .442191958427D-05  .515364705276D+04
     .266400000000D+06 -.540167093277D-07  .267353010209D+01  .335276126862D-07
     .979808073831D+00  .309281250000D+03  .105764494019D+01 -.811212361680D-08
    -.145363197818D-09  .100000000000D+01  .226900000000D+04  .000000000000D+00
     .240000000000D+01  .000000000000D+00  .186264514923D-08  .730000000000D+02
     .259200000000D+06  .400000000000D+01
8  23  7  5  2  0  0.0 -.130589120090D-03 -.181898940355D-11  .000000000000D+00
     .600000000000D+01  .118906250000D+03  .405731186047D-08 -.290219309828D+01
     .614300370216D-05  .847912160680D-02  .110846012831D-04  .515372384071D+04
     .266400000000D+06 -.298023223877D-07  .549694162980D+00 -.316649675369D-07
     .958418594987D+00  .165062500000D+03  .270075273856D+00 -.768389149349D-08
    -.119290683221D-09  .100000000000D+01  .226900000000D+04  .000000000000D+00
     .240000000000D+01  .000000000000D+00  .512227416039D-08  .600000000000D+01
     .259200000000D+06  .400000000000D+01
7  23  7  5  2  0  0.0  .134144444019D-03 -.105728759081D-10  .000000000000D+00
     .210000000000D+02  .229062500000D+02  .544772691969D-08  .538425945773D+00
     .146962702274D-05  .174635384465D-01  .598467886448D-05  .515372790718D+04
     .266400000000D+06 -.135973095894D-06 -.151446667786D+01  .147148966789D-06
     .949827934797D+00  .260406250000D+03 -.218433924652D+01 -.864143137887D-08
     .160720980388D-09  .100000000000D+01  .226900000000D+04  .000000000000D+00
     .240000000000D+01  .000000000000D+00 -.111758708954D-07  .210000000000D+02
     .259200000000D+06  .400000000000D+01
6  23  7  5  2  0  0.0  .580666586757D-03 -.306954461848D-11  .000000000000D+00
     .980000000000D+02  .730625000000D+02  .392802076069D-08  .138266653935D+01
     .391155481339D-05  .268879684154D-02  .465661287308D-06  .515369479179D+04
     .266400000000D+06  .158324837685D-06  .163464616610D+01  .223517417908D-07
     .989026488260D+00  .384562500000D+03 -.748311615988D+00 -.811462372094D-08
     .311084386485D-09  .100000000000D+01  .226900000000D+04  .000000000000D+00
     .340000000000D+01  .000000000000D+00  .372529029846D-08  .980000000000D+02
     .259200000000D+06  .400000000000D+01
4  23  7  5  2  0  0.0  .867191702127D-04  .106865627458D-10  .000000000000D+00
     .155000000000D+03 -.623750000000D+02  .432660879205D-08  .294513816153D+01
    -.312738120556D-05  .243191525806D-02  .115036964417D-04  .515365737534D+04
     .266400000000D+06 -.335276126862D-07 -.252942812893D+01 -.428408384323D-07
     .963191774838D+00  .162187500000D+03 -.299037662391D+01 -.768567728217D-08
     .532879339421D-09  .100000000000D+01  .226900000000D+04  .000000000000D+00
     .240000000000D+01  .000000000000D+00 -.465661287308D-08  .411000000000D+03
     .259200000000D+06  .400000000000D+01
17 23  7  5  4  0  0.0  .720241572708D-03  .909494701773D-12  .000000000000D+00
     .270000000000D+02  .127812500000D+03  .373908431930D-08 -.192887473678D+01
     .668130815029D-05  .135185684776D-01  .988878309727D-05  .515379991722D+04
     .273600000000D+06  .178813934326D-06  .639252954491D+00  .322237610817D-06
     .973975968043D+00  .199437500000D+03 -.140342898517D+01 -.755388607825D-08
    -.227509476683D-09  .100000000000D+01  .226900000000D+04  .000000000000D+00
     .240000000000D+01  .000000000000D+00 -.111758708954D-07  .270000000000D+02
     .266400000000D+06  .400000000000D+01
13 23  7  5  4  0  0.0  .542947556823D-03  .500222085975D-11  .000000000000D+00
     .250000000000D+02 -.509375000000D+02  .414910139816D-08 -.221894115777D+01
    -.287033617496D-05  .712386716623D-02  .118240714073D-04  .515367324829D+04
     .273600000000D+06  .353902578354D-07 -.242562983118D+01 -.912696123123D-07
     .970066016652D+00  .153312500000D+03  .910764050258D+00 -.752817072139D-08
     .702529263164D-09  .100000000000D+01  .226900000000D+04  .000000000000D+00
     .240000000000D+01  .000000000000D+00 -.111758708954D-07  .250000000000D+02
     .266400000000D+06  .400000000000D+01
10 23  7  5  4  0  0.0 -.438941642642D-04 -.159161572810D-11  .000000000000D+00
     .115000000000D+03 -.145437500000D+03  .412660046090D-08  .157443502245D+00
    -.756047666073D-05  .858124578372D-02  .366382300854D-05  .515369265556D+04
     .273600000000D+06  .447034835815D-07  .267083459507D+01  .208616256714D-06
     .979531437485D+00  .321656250000D+03 -.243805711400D+01 -.824748639806D-08
    -.165006873199D-09  .100000000000D+01  .226900000000D+04  .000000000000D+00
     .340000000000D+01  .000000000000D+00  .232830643654D-08  .115000000000D+03
     .266400000000D+06  .400000000000D+01
11 23  7  5  4  0  0.0 -.262692570686D-03 -.158024704433D-10  .000000000000D+00
     .410000000000D+02  .670312500000D+02  .440804075545D-08 -.241452954088D+01
     .361725687981D-05  .889586750418D-03  .108033418655D-06  .515355831337D+04
     .273600000000D+06  .223517417908D-07  .167505749182D+01  .782310962677D-07
     .965278788399D+00  .379937500000D+03 -.287644585419D+01 -.832641825731D-08
     .255724937684D-09  .100000000000D+01  .226900000000D+04  .000000000000D+00
     .240000000000D+01  .000000000000D+00 -.884756445885D-08  .809000000000D+03
     .266400000000D+06  .400000000000D+01
31 23  7  5  4  0  0.0 -.219469889998D-03 -.682121026330D-12  .000000000000D+00
     .890000000000D+02  .125937500000D+02  .529129183211D-08  .697601522544D+00
     .903382897377D-06  .103258865420D-01  .606849789619D-05  .515357443047D+04
     .273600000000D+06  .242143869400D-07 -.149436066532D+01  .819563865662D-07
     .953903153507D+00  .257718750000D+03  .549588012181D+00 -.835320508738D-08
     .252153360342D-09  .100000000000D+01  .226900000000D+04  .000000000000D+00
     .240000000000D+01  .000000000000D+00 -.135041773319D-07  .890000000000D+02
     .266400000000D+06  .400000000000D+01
29 23  7  5  4  0  0.0 -.604710541666D-03 -.102318153949D-11  .000000000000D+00
     .690000000000D+02  .156125000000D+03  .370336854588D-08 -.182868615722D+01
     .797025859356D-05  .261594413314D-02  .106282532215D-04  .515375577354D+04
     .273600000000D+06 -.279396772385D-07  .653418766223D+00  .149011611938D-07
     .976241374223D+00  .182937500000D+03  .245813622201D+01 -.762603194055D-08
    -.140005831805D-09  .100000000000D+01  .226900000000D+04  .000000000000D+00
     .240000000000D+01  .000000000000D+00 -.102445483208D-07  .690000000000D+02
     .266400000000D+06  .400000000000D+01
32 23  7  5  4  0  0.0 -.514583196491D-03 -.795807864051D-11  .000000000000D+00
     .780000000000D+02 -.890937500000D+02  .430160775066D-08 -.121634381925D+01
    -.441260635853D-05  .695677578915D-02  .120289623737D-04  .515377161217D+04
     .273600000000D+06  .109896063805D-06 -.257313542370D+01  .137835741043D-06
     .960151496061D+00  .145343750000D+03 -.220196623612D+01 -.771174979676D-08
     .571095216980D-09  .100000000000D+01  .226900000000D+04  .000000000000D+00
     .240000000000D+01  .000000000000D+00  .465661287308D-09  .780000000000D+02
     .266400000000D+06  .400000000000D+01
16 23  7  5  4  0  0.0 -.484361778945D-03  .420641299570D-11  .000000000000D+00
     .730000000000D+02 -.387500000000D+01  .461376361035D-08 -.915081958299D+00
    -.195577740669D-06  .133019657806D-01  .876747071743D-05  .515361539078D+04
     .273600000000D+06  .197440385818D-06 -.381283179986D+00  .219792127609D-06
     .964889745817D+00  .212437500000D+03  .789183594127D+00 -.795818863336D-08
    -.854678457931D-09  .100000000000D+01  .226900000000D+04  .000000000000D+00
     .240000000000D+01  .000000000000D+00 -.102445483208D-07  .730000000000D+02
     .266400000000D+06  .400000000000D+01
